OBJECT_NAME,OBJECT_ID,EPOCH,MEAN_MOTION,ECCENTRICITY,INCLINATION,RA_OF_ASC_NODE,ARG_OF_PERICENTER,MEAN_ANOMALY,EPHEMERIS_TYPE,CLASSIFICATION_TYPE,NORAD_CAT_ID,ELEMENT_SET_NO,REV_AT_EPOCH,BSTAR,MEAN_MOTION_DOT,MEAN_MOTION_DDOT
SIRION PATHFINDER-2,2018-099B,2026-06-04T02:23:38.952096,15.14427297,.0008286,97.4255,204.4687,356.1424,3.9743,0,U,43759,999,41064,.32069E-3,.5832E-4,0
CORVUS BC4,2018-099K,2026-06-04T08:28:41.831616,15.12386308,.00094568,97.4067,198.7097,53.6519,306.5583,0,U,43767,999,41046,.29007954E-3,.4976E-4,0
M2 PATHFINDER,2020-037E,2026-06-04T17:51:17.871840,15.04617610,.00113719,97.8151,346.8349,189.4235,170.6779,0,U,45727,999,32362,.25552502E-3,.3529E-4,0
NETSAT-4,2020-068U,2026-06-04T19:24:10.190592,15.43433929,.00055346,97.8608,163.0588,26.3615,333.7913,0,U,46504,999,31386,.4291458E-3,.19127E-3,0
NETSAT-3,2020-068V,2026-06-03T13:44:11.895360,15.42183437,.00060677,97.8653,159.9578,46.7511,313.4240,0,U,46505,999,31358,.45992462E-3,.19667E-3,0
NETSAT-1,2020-068W,2026-06-04T05:22:21.073728,15.34317185,.000637,97.8744,155.1432,67.0325,293.1588,0,U,46506,999,31331,.45524E-3,.15061E-3,0
NETSAT-2,2020-068X,2026-06-04T20:45:46.193472,15.45448329,.00050668,97.8621,162.9708,59.3710,300.8037,0,U,46507,999,31383,.54868764E-3,.26234E-3,0
GREENCUBE (IO-117),2022-080E,2026-06-01T11:09:37.753056,6.42583280,.00088692,70.1435,303.7143,293.3663,66.6064,0,U,53109,999,9105,0,-.3E-7,0
SITRO-AIS 5 (KATYS),2023-091L,2026-06-04T21:35:46.483584,15.29160745,.00125499,97.5061,219.6848,141.5242,218.6895,0,U,57176,999,16246,.48633463E-3,.13729E-3,0
SITRO-AIS 6 (CHIRKIN),2023-091AC,2026-06-04T21:59:22.323840,15.25690581,.00127779,97.5069,218.8850,144.5279,215.6811,0,U,57192,999,16241,.46753474E-3,.11871E-3,0
SITRO-AIS 8 (ANOKHIN),2023-091AD,2026-06-04T22:30:55.539648,15.31789962,.00117444,97.5058,221.2630,137.6732,222.5418,0,U,57193,999,16257,.54441936E-3,.16684E-3,0
SITRO-AIS 7 (FARTUSHNIY),2023-091AE,2026-06-04T22:00:19.379808,15.25384627,.00126107,97.5067,218.7168,145.4239,214.7822,0,U,57194,999,16240,.46567211E-3,.11714E-3,0
SITRO-AIS 10 (BURDAEV),2023-091AK,2026-06-04T21:22:27.744960,15.38123994,.00079911,97.5080,226.1434,116.3362,243.8705,0,U,57199,999,16287,.6201812E-3,.23257E-3,0
SITRO-AIS 9 (SHCHUKIN),2023-091AM,2026-06-04T21:54:56.567808,15.37653049,.00082231,97.5078,225.9060,116.2979,243.9111,0,U,57201,999,16286,.61727785E-3,.22797E-3,0
SITRO-AIS 12 (SMIRENNIY),2023-091AQ,2026-06-04T21:44:46.139712,15.37941304,.00078721,97.5093,226.3584,111.5714,248.6370,0,U,57204,999,16288,.60980501E-3,.22729E-3,0
SITRO-AIS 11 (SHEFFER),2023-091AU,2026-06-04T22:08:54.963168,15.38355062,.00077949,97.5090,226.6144,111.3417,248.8661,0,U,57208,999,16290,.63302677E-3,.23921E-3,0
SITRO-AIS 25,2024-039R,2026-06-04T23:32:52.808928,14.93442339,.01451544,95.3908,226.7051,11.5874,348.8633,0,U,59066,999,12290,.32950949E-3,.4227E-4,0
SITRO-AIS 26,2024-039S,2026-06-04T23:32:27.955968,14.93239192,.01454937,95.3908,226.6052,12.1548,348.3126,0,U,59067,999,12289,.31904079E-3,.4073E-4,0
SITRO-AIS 27,2024-039T,2026-06-04T22:54:32.353632,14.93659693,.01445168,95.3914,226.8530,10.9765,349.4556,0,U,59068,999,12291,.3419962E-3,.4407E-4,0
SITRO-AIS 28,2024-039U,2026-06-04T22:22:27.355584,14.93691463,.01443363,95.3912,226.8843,10.8436,349.5844,0,U,59071,999,12291,.33875282E-3,.4367E-4,0
GRBBETA,2024-128C,2026-06-04T17:49:09.395040,15.06546882,.00423545,61.9904,259.9266,132.1755,228.2947,0,U,60237,999,10439,.34080333E-3,.4952E-4,0
OOV-CUBE (TUBSAT-30),2024-128F,2026-06-04T21:05:13.410816,15.02716687,.00461496,61.9956,268.4903,131.0003,229.5093,0,U,60240,999,10426,.24587656E-3,.3161E-4,0
ROBUSTA-3A (MEDITERRANEE),2024-128J,2026-06-04T18:21:13.917024,15.11508511,.00431224,61.9867,252.1698,125.3968,235.1167,0,U,60243,999,10454,.54646554E-3,.9298E-4,0
LASARSAT,2024-247Q,2026-06-03T22:10:16.072896,15.45494859,.00080478,44.9754,336.7002,258.6055,101.3931,0,U,62391,999,8126,.75515127E-3,.36882E-3,0
CROCUBE,2024-247T,2026-06-04T18:38:20.569344,15.47331526,.00079506,44.9728,329.4431,266.3385,93.6596,0,U,62394,999,8142,.74813998E-3,.38955E-3,0
FORESAIL-1 PRIME,2025-276DS,2026-06-04T22:31:40.401984,15.18587417,.0003561,97.4203,229.4345,129.2467,230.9084,0,U,66778,999,2854,.30156346E-3,.617E-4,0
KNACKSAT-2,1998-067XZ,2026-06-02T19:15:48.445056,15.58609395,.0010958,51.6300,6.7601,153.2067,206.9494,0,U,67683,999,1803,.58253104E-3,.45408E-3,0
